NORAD_CAT_ID,OBJECT_NAME,OBJECT_TYPE,EPOCH,MEAN_MOTION,ECCENTRICITY,INCLINATION,RA_OF_ASC_NODE,ARG_OF_PERICENTER,MEAN_ANOMALY,BSTAR,MEAN_MOTION_DOT,MEAN_MOTION_DDOT,TLE_LINE0,TLE_LINE1,TLE_LINE2,SEMIMAJOR_AXIS,PERIOD,APOGEE,PERIGEE,DECAYED
52283.0,STARLINK-3789,PAYLOAD,2023-04-02 16:49:26,15.08862366,0.0001088,53.2137,241.4659,93.0749,267.0367,0.00082898,0.00012938,0.0,0 STARLINK-3789,1 52283U 22041Y   23092.70100660  .00012938  00000-0  82898-3 0  9996,2 52283  53.2137 241.4659 0001088  93.0749 267.0367 15.08862366 52534,6917.812,95.436,540.43,538.924,0.0
52283.0,STARLINK-3789,PAYLOAD,2023-04-03 02:21:45,15.0885363,0.0001235,53.2142,239.6838,102.6092,257.5038,0.00022463,3.29e-05,0.0,0 STARLINK-3789,1 52283U 22041Y   23093.09844612  .00003290  00000-0  22463-3 0  9994,2 52283  53.2142 239.6838 0001235 102.6092 257.5038 15.08853630 53815,6917.839,95.437,540.558,538.849,0.0
52283.0,STARLINK-3789,PAYLOAD,2023-04-03 10:18:41,15.08835271,0.0001609,53.2144,238.1953,96.2075,263.91,-0.00021393,-3.691e-05,0.0,0 STARLINK-3789,1 52283U 22041Y   23093.42964981 -.00003691  00000-0 -21393-3 0  9991,2 52283  53.2144 238.1953 0001609  96.2075 263.9100 15.08835271 53860,6917.895,95.438,540.873,538.647,0.0
52283.0,STARLINK-3789,PAYLOAD,2023-04-03 18:15:37,15.08833511,0.0001404,53.2146,236.7089,84.5921,275.5232,0.00013346,1.836e-05,0.0,0 STARLINK-3789,1 52283U 22041Y   23093.76085250  .00001836  00000-0  13346-3 0  9997,2 52283  53.2146 236.7089 0001404  84.5921 275.5232 15.08833511 52699,6917.9,95.438,540.736,538.794,0.0
52283.0,STARLINK-3789,PAYLOAD,2023-04-04 10:09:29,15.08851387,0.0001265,53.2135,233.7334,76.1869,283.9264,0.00095803,0.00014997,0.0,0 STARLINK-3789,1 52283U 22041Y   23094.42325240  .00014997  00000-0  95803-3 0  9997,2 52283  53.2135 233.7334 0001265  76.1869 283.9264 15.08851387 54017,6917.846,95.437,540.586,538.835,0.0
52283.0,STARLINK-3789,PAYLOAD,2023-04-04 19:41:47,15.08872332,0.0001323,53.2134,231.9495,76.4287,283.6853,0.001202,0.00018911,0.0,0 STARLINK-3789,1 52283U 22041Y   23094.82068456  .00018911  00000-0  12020-2 0  9993,2 52283  53.2134 231.9495 0001323  76.4287 283.6853 15.08872332 52850,6917.782,95.436,540.562,538.731,0.0
52283.0,STARLINK-3789,PAYLOAD,2023-04-05 13:11:02,15.08831664,0.0001412,53.2129,228.6785,103.5528,256.5621,-6.0281e-05,-1.247e-05,0.0,0 STARLINK-3789,1 52283U 22041Y   23095.54933107 -.00001247  00000-0 -60281-4 0  9997,2 52283  53.2129 228.6785 0001412 103.5528 256.5621 15.08831664 52965,6917.906,95.438,540.748,538.794,0.0
52283.0,STARLINK-3789,PAYLOAD,2023-04-05 14:46:25,15.08828665,0.0002586,53.2146,228.3797,134.4654,225.655,-5.6392e-06,-3.78e-06,0.0,0 STARLINK-3789,1 52283U 22041Y   23095.61557034 -.00000378  00000-0 -56392-5 0  9999,2 52283  53.2146 228.3797 0002586 134.4654 225.6550 15.08828665 54192,6917.915,95.438,541.569,537.991,0.0
52283.0,STARLINK-3789,PAYLOAD,2023-04-05 16:21:48,15.08837396,0.0001281,53.2138,228.083,88.0333,272.0806,5.539e-05,5.94e-06,0.0,0 STARLINK-3789,1 52283U 22041Y   23095.68181219  .00000594  00000-0  55390-4 0  9998,2 52283  53.2138 228.0830 0001281  88.0333 272.0806 15.08837396 52983,6917.888,95.438,540.64,538.867,0.0
52283.0,STARLINK-3789,PAYLOAD,2023-04-06 09:51:03,15.08841053,0.0001378,53.2148,224.8132,88.28,271.835,0.00063612,9.851e-05,0.0,0 STARLINK-3789,1 52283U 22041Y   23096.41045724  .00009851  00000-0  63612-3 0  9990,2 52283  53.2148 224.8132 0001378  88.2800 271.8350 15.08841053 53090,6917.877,95.437,540.695,538.789,0.0
52283.0,STARLINK-3789,PAYLOAD,2023-04-06 17:47:58,15.08853239,0.0001507,53.2152,223.327,85.1114,275.005,0.0007958,0.00012404,0.0,0 STARLINK-3789,1 52283U 22041Y   23096.74165464  .00012404  00000-0  79580-3 0  9999,2 52283  53.2152 223.3270 0001507  85.1114 275.0050 15.08853239 54363,6917.84,95.437,540.747,538.662,0.0
52283.0,STARLINK-3789,PAYLOAD,2023-04-07 08:06:27,15.08849277,0.0002873,53.2145,220.6507,102.2264,257.905,0.00049004,7.521e-05,0.0,0 STARLINK-3789,1 52283U 22041Y   23097.33781668  .00007521  00000-0  49004-3 0  9997,2 52283  53.2145 220.6507 0002873 102.2264 257.9050 15.08849277 54458,6917.852,95.437,541.705,537.73,0.0
52283.0,STARLINK-3789,PAYLOAD,2023-04-08 01:35:42,15.08844268,0.0001369,53.2154,217.3801,61.2583,298.8546,0.00061148,9.458e-05,0.0,0 STARLINK-3789,1 52283U 22041Y   23098.06645965  .00009458  00000-0  61148-3 0  9991,2 52283  53.2154 217.3801 0001369  61.2583 298.8546 15.08844268 54566,6917.867,95.437,540.679,538.785,0.0
52283.0,STARLINK-3789,PAYLOAD,2023-04-08 12:43:24,15.08844079,0.0001516,53.2142,215.297,83.2652,276.8512,0.0002727,4.055e-05,0.0,0 STARLINK-3789,1 52283U 22041Y   23098.53013943  .00004055  00000-0  27270-3 0  9994,2 52283  53.2142 215.2970 0001516  83.2652 276.8512 15.08844079 53414,6917.868,95.437,540.782,538.684,0.0
52283.0,STARLINK-3789,PAYLOAD,2023-04-08 14:18:47,15.08842809,0.0001558,53.2143,214.999,86.2419,273.8751,0.00037114,5.624e-05,0.0,0 STARLINK-3789,1 52283U 22041Y   23098.59638033  .00005624  00000-0  37114-3 0  9994,2 52283  53.2143 214.9990 0001558  86.2419 273.8751 15.08842809 54640,6917.872,95.437,540.815,538.659,0.0
52283.0,STARLINK-3789,PAYLOAD,2023-04-09 10:58:47,15.08842532,0.0001402,53.2138,211.1336,84.8212,275.294,0.00016468,2.334e-05,0.0,0 STARLINK-3789,1 52283U 22041Y   23099.45749929  .00002334  00000-0  16468-3 0  9991,2 52283  53.2138 211.1336 0001402  84.8212 275.2940 15.08842532 53558,6917.873,95.437,540.708,538.768,0.0
52283.0,STARLINK-3789,PAYLOAD,2023-04-09 14:09:34,15.08843391,0.0001379,53.2144,210.5392,84.6753,275.4396,0.00015791,2.226e-05,0.0,0 STARLINK-3789,1 52283U 22041Y   23099.58997859  .00002226  00000-0  15791-3 0  9990,2 52283  53.2144 210.5392 0001379  84.6753 275.4396 15.08843391 54799,6917.87,95.437,540.689,538.781,0.0
52283.0,STARLINK-3789,PAYLOAD,2023-04-10 07:38:48,15.0884452,0.0001335,53.2139,207.2678,88.7742,271.3403,0.00011867,1.601e-05,0.0,0 STARLINK-3789,1 52283U 22041Y   23100.31861655  .00001601  00000-0  11867-3 0  9994,2 52283  53.2139 207.2678 0001335  88.7742 271.3403 15.08844520 53684,6917.867,95.437,540.655,538.808,0.0
52283.0,STARLINK-3789,PAYLOAD,2023-04-10 17:11:06,15.08859667,0.0001308,53.2137,205.4839,92.5131,267.6011,0.00030121,4.512e-05,0.0,0 STARLINK-3789,1 52283U 22041Y   23100.71604591  .00004512  00000-0  30121-3 0  9990,2 52283  53.2137 205.4839 0001308  92.5131 267.6011 15.08859667 53744,6917.82,95.436,540.59,538.78,0.0
52283.0,STARLINK-3789,PAYLOAD,2023-04-11 12:15:44,15.08844181,0.0001294,53.2148,201.9174,98.0754,262.0384,6.8496e-05,8.03e-06,0.0,0 STARLINK-3789,1 52283U 22041Y   23101.51093135  .00000803  00000-0  68496-4 0  9991,2 52283  53.2148 201.9174 0001294  98.0754 262.0384 15.08844181 53865,6917.868,95.437,540.628,538.837,0.0
52283.0,STARLINK-3789,PAYLOAD,2023-04-12 12:06:31,15.08836682,0.0001261,53.2143,197.4543,90.6906,269.4231,-0.00013088,-2.37e-05,0.0,0 STARLINK-3789,1 52283U 22041Y   23102.50453154 -.00002370  00000-0 -13088-3 0  9991,2 52283  53.2143 197.4543 0001261  90.6906 269.4231 15.08836682 55232,6917.891,95.438,540.628,538.883,0.0
52283.0,STARLINK-3789,PAYLOAD,2023-04-12 23:14:13,15.08833947,0.0001273,53.2149,195.3734,92.1327,267.981,3.8002e-05,3.17e-06,0.0,0 STARLINK-3789,1 52283U 22041Y   23102.96821473  .00000317  00000-0  38002-4 0  9995,2 52283  53.2149 195.3734 0001273  92.1327 267.9810 15.08833947 54083,6917.899,95.438,540.645,538.883,0.0
52283.0,STARLINK-3789,PAYLOAD,2023-04-14 11:48:06,15.08839211,0.0001213,53.2138,188.535,71.0976,289.0147,0.00016723,2.375e-05,0.0,0 STARLINK-3789,1 52283U 22041Y   23104.49173910  .00002375  00000-0  16723-3 0  9992,2 52283  53.2138 188.5350 0001213  71.0976 289.0147 15.08839211 54313,6917.883,95.438,540.587,538.909,0.0
52283.0,STARLINK-3789,PAYLOAD,2023-04-15 11:38:53,15.08846335,0.0001637,53.2145,184.0749,79.0978,281.0199,0.00026878,3.993e-05,0.0,0 STARLINK-3789,1 52283U 22041Y   23105.48533875  .00003993  00000-0  26878-3 0  9991,2 52283  53.2145 184.0749 0001637  79.0978 281.0199 15.08846335 54464,6917.861,95.437,540.858,538.594,0.0
52283.0,STARLINK-3789,PAYLOAD,2023-04-15 16:25:02,15.08858979,0.0001506,53.2143,183.1773,109.0208,251.0947,0.00056038,8.646e-05,0.0,0 STARLINK-3789,1 52283U 22041Y   23105.68405157  .00008646  00000-0  56038-3 0  9995,2 52283  53.2143 183.1773 0001506 109.0208 251.0947 15.08858979 55718,6917.822,95.436,540.729,538.646,0.0
52283.0,STARLINK-3789,PAYLOAD,2023-04-16 05:08:07,15.08840205,0.0001235,53.2126,180.804,90.0026,270.1108,0.00012257,1.663e-05,0.0,0 STARLINK-3789,1 52283U 22041Y   23106.21397723  .00001663  00000-0  12257-3 0  9991,2 52283  53.2126 180.8040 0001235  90.0026 270.1108 15.08840205 55798,6917.88,95.438,540.599,538.89,0.0
52283.0,STARLINK-3789,PAYLOAD,2023-04-16 11:29:40,15.08846189,0.0001524,53.2136,179.6126,96.2151,263.9015,0.00021587,3.15e-05,0.0,0 STARLINK-3789,1 52283U 22041Y   23106.47893683  .00003150  00000-0  21587-3 0  9994,2 52283  53.2136 179.6126 0001524  96.2151 263.9015 15.08846189 54612,6917.861,95.437,540.781,538.672,0.0
52283.0,STARLINK-3789,PAYLOAD,2023-04-17 12:55:50,15.08841875,0.000147,53.2153,174.8573,86.974,273.142,-6.9598e-05,-1.396e-05,0.0,0 STARLINK-3789,1 52283U 22041Y   23107.53877993 -.00001396  00000-0 -69598-4 0  9995,2 52283  53.2153 174.8573 0001470  86.9740 273.1420 15.08841875 54771,6917.875,95.437,540.757,538.723,0.0
52283.0,STARLINK-3789,PAYLOAD,2023-04-17 20:52:46,15.0883889,0.0001351,53.2152,173.3667,81.5873,278.5272,-4.3078e-05,-9.73e-06,0.0,0 STARLINK-3789,1 52283U 22041Y   23107.86998171 -.00000973  00000-0 -43078-4 0  9998,2 52283  53.2152 173.3667 0001351  81.5873 278.5272 15.08838890 54827,6917.884,95.438,540.683,538.814,0.0
52283.0,STARLINK-3789,PAYLOAD,2023-04-18 09:35:51,15.08837228,0.0001203,53.2141,170.9885,95.3072,264.8057,0.00016398,2.323e-05,0.0,0 STARLINK-3789,1 52283U 22041Y   23108.39990408  .00002323  00000-0  16398-3 0  9995,2 52283  53.2141 170.9885 0001203  95.3072 264.8057 15.08837228 54902,6917.889,95.438,540.586,538.922,0.0
